#cP2012 12  8  0  0  0.00000000     288 u+U   IGb08 FIT  TUM
## 1717 518400.00000000   300.00000000 56269 0.0000000000000
+    3   J01E11E12  0  0  0  0  0  0  0  0  0  0  0  0  0  0
+          0  0  0  0  0  0  0  0  0  0  0  0  0  0  0  0  0
+          0  0  0  0  0  0  0  0  0  0  0  0  0  0  0  0  0
+          0  0  0  0  0  0  0  0  0  0  0  0  0  0  0  0  0
+          0  0  0  0  0  0  0  0  0  0  0  0  0  0  0  0  0
++         5  1  1  0  0  0  0  0  0  0  0  0  0  0  0  0  0
++         0  0  0  0  0  0  0  0  0  0  0  0  0  0  0  0  0
++         0  0  0  0  0  0  0  0  0  0  0  0  0  0  0  0  0
++         0  0  0  0  0  0  0  0  0  0  0  0  0  0  0  0  0
++         0  0  0  0  0  0  0  0  0  0  0  0  0  0  0  0  0
%c E  cc GPS ccc cccc cccc cccc cccc ccccc ccccc ccccc ccccc
%c cc cc ccc ccc cccc cccc cccc cccc ccccc ccccc ccccc ccccc
%f  1.2500000  1.025000000  0.00000000000  0.000000000000000
%f  0.0000000  0.000000000  0.00000000000  0.000000000000000
%i    0    0    0    0      0      0      0      0         0
%i    0    0    0    0      0      0      0      0         0
/* Galileo+QZSS orbits for MGEX based on CONGO+MGEX data    
/* Technische Universitaet Muenchen (TUM)                   
/* Further information: www.iapg.bv.tum.de/mgex             
/* PCV:IGS08_1645 OL/AL:FES2004  NONE     YN ORB:CoN CLK:CoN
*  2012 12  8 16 40  0.00000000
PJ01 -23193.099324  19126.355693 -24928.184391    351.933396
PE11  26399.319209 -13203.615821  -2222.489839    -98.477231
PE12  24020.695600    368.288104 -17288.546338    684.390671
*  2012 12  8 16 45  0.00000000
PJ01 -23489.768581  18957.835842 -24801.706476    351.933167
PE11  26323.460132 -13174.446163  -3116.670772    -98.452513
PE12  23558.734428    627.315343 -17905.751496    684.416174
*  2012 12  8 16 50  0.00000000
PJ01 -23790.687120  18800.058374 -24660.307180    351.932962
PE11  26225.405061 -13129.551442  -4006.540409    -98.427798
PE12  23087.221950    906.199206 -18498.182912    684.441697
*  2012 12  8 16 55  0.00000000
PJ01 -24095.361204  18653.231984 -24504.090142    351.932824
PE11  26105.951239 -13068.018642  -4890.867834    -98.403069
PE12  22607.457133   1205.076852 -19065.021168    684.467230
*  2012 12  8 17  0  0.00000000
PJ01 -24403.290308  18517.543482 -24333.169575    351.932679
PE11  25965.954116 -12988.985965  -5768.429836    -98.378289
PE12  22120.750762   1524.010253 -19605.482283    684.492808
*  2012 12  8 17  5  0.00000000
PJ01 -24713.968182  18393.157473 -24147.670093    351.932427
PE11  25806.324258 -12891.646095  -6638.012587    -98.353567
PE12  21628.420956   1862.985717 -20118.818785    684.518318
*  2012 12  8 17 10  0.00000000
PJ01 -25026.883957  18280.216089 -23947.726533    351.932260
PE11  25628.024073 -12775.249260  -7498.413341    -98.328842
PE12  21131.788650   2221.913689 -20604.320756    684.543862
*  2012 12  8 17 15  0.00000000
PJ01 -25341.523227  18178.838778 -23733.483761    351.932102
PE11  25432.064359 -12639.106109  -8348.442077    -98.304097
PE12  20632.173088   2600.628796 -21061.316800    684.569379
*  2012 12  8 17 20  0.00000000
PJ01 -25657.369157  18089.122152 -23505.096465    351.931881
PE11  25219.500675 -12482.590368  -9186.923162    -98.279350
PE12  20130.887311   2998.890176 -21489.174978    684.594916
*  2012 12  8 17 25  0.00000000
PJ01 -25973.903584  18011.139876 -23262.728936    351.931727
PE11  24991.429580 -12305.141280 -10012.696975    -98.254631
PE12  19629.233676   3416.382071 -21887.303676    684.620444
*  2012 12  8 17 30  0.00000000
PJ01 -26290.608109  17944.942629 -23006.554837    351.931614
PE11  24748.984719 -12106.265822 -10824.621498    -98.229861
PE12  19128.499427   3852.714666 -22255.152419    684.645984
*  2012 12  8 17 35  0.00000000
PJ01 -26606.965201  17890.558111 -22736.756961    351.931374
PE11  24493.332790 -11885.540679 -11621.573915    -98.205079
PE12  18629.952296   4307.425214 -22592.212638    684.671508
*  2012 12  8 17 40  0.00000000
PJ01 -26922.459272  17847.991113 -22453.526982    351.931220
PE11  24225.669390 -11642.613987 -12402.452146    -98.180332
PE12  18134.836212   4779.979391 -22898.018361    684.697038
*  2012 12  8 17 45  0.00000000
PJ01 -27236.577761  17817.223623 -22157.065190    351.931122
PE11  23947.214781 -11377.206812 -13166.176384    -98.155594
PE12  17644.367062   5269.772921 -23172.146861    684.722562
*  2012 12  8 17 50  0.00000000
PJ01 -27548.812188  17798.215005 -21847.580224    351.930938
PE11  23659.209564 -11089.114393 -13911.690577    -98.130860
PE12  17159.728581   5776.133440 -23414.219237    684.748092
*  2012 12  8 17 55  0.00000000
PJ01 -27858.659203  17790.902224 -21525.288792    351.930706
PE11  23362.910277 -10778.207114 -14637.963895    -98.106087
PE12  16682.068341   6298.322594 -23623.900935    684.773626
*  2012 12  8 18  0  0.00000000
PJ01 -28165.621608  17795.200116 -21190.415390    351.930560
PE11  23059.584968 -10444.431221 -15343.992147    -98.081330
PE12  16212.493881   6835.538383 -23800.902206    684.799157
*  2012 12  8 18  5  0.00000000
PJ01 -28469.209370  17811.001701 -20843.192011    351.930399
PE11  22750.508706 -10087.809277 -16028.799170    -98.056558
PE12  15752.068968   7386.917704 -23944.978514    684.824709
*  2012 12  8 18 10  0.00000000
PJ01 -28768.940588  17838.178588 -20483.857835    351.930168
PE11  22436.959081  -9708.440339 -16691.438183    -98.031804
PE12  15301.810032   7951.539152 -24055.930856    684.850257
*  2012 12  8 18 15  0.00000000
PJ01 -29064.342462  17876.581358 -20112.658948    351.929997
PE11  22120.211709  -9306.499888 -17330.993081    -98.007067
PE12  14862.682753   8528.425973 -24133.606049    684.875778
*  2012 12  8 18 20  0.00000000
PJ01 -29354.952208  17926.040051 -19729.848019    351.929843
PE11  21801.535734  -8882.239480 -17946.579710    -97.982327
PE12  14435.598836   9116.549253 -24177.896931    684.901304
*  2012 12  8 18 25  0.00000000
PJ01 -29640.317963  17986.364659 -19335.684003    351.929615
PE11  21482.189366  -8435.986136 -18537.347080    -97.957560
PE12  14021.412981   9714.831269 -24188.742516    684.926828
*  2012 12  8 18 30  0.00000000
PJ01 -29919.999643  18057.345690 -18930.431817    351.929481
PE11  21163.415452  -7968.141468 -19102.478541    -97.932803
PE12  13620.920048  10322.149028 -24166.128065    684.952352
*  2012 12  8 18 35  0.00000000
PJ01 -30193.569773  18138.754749 -18514.362038    351.929336
PE11  20846.437123  -7479.180553 -19641.192908    -97.908025
PE12  13234.852445  10937.337951 -24110.085116    684.977905
*  2012 12  8 18 40  0.00000000
PJ01 -30460.614288  18230.345164 -18087.750577    351.929110
PE11  20532.453493  -6969.650535 -20152.745542    -97.883276
PE12  12863.877719  11559.195717 -24020.691432    685.003437
*  2012 12  8 18 45  0.00000000
PJ01 -30720.733281  18331.852655 -17650.878373    351.928965
PE11  20222.635459  -6440.169000 -20636.429365    -97.858500
PE12  12508.596403  12186.486227 -23898.070896    685.028964
*  2012 12  8 18 50  0.00000000
PJ01 -30973.541729  18442.996021 -17204.031071    351.928853
PE11  19918.121602  -5891.422076 -21091.575849    -97.833725
PE12  12169.540071  12817.943708 -23742.393336    685.054525
*  2012 12  8 18 55  0.00000000
PJ01 -31218.670169  18563.477876 -16747.498708    351.928652
PE11  19620.014201  -5324.162326 -21517.555925    -97.808972
PE12  11847.169660  13452.276905 -23553.874290    685.080062
*  2012 12  8 19  0  0.00000000
PJ01 -31455.765334  18692.985402 -16281.575404    351.928425
PE11  19329.375383  -4739.206388 -21913.780852    -97.784228
PE12  11541.874031  14088.173364 -23332.774709    685.105588
*  2012 12  8 19  5  0.00000000
PJ01 -31684.490754  18831.191132 -15806.559044    351.928276
PE11  19047.223411  -4137.432399 -22279.703033    -97.759445
PE12  11253.968786  14724.303815 -23079.400595    685.131144
*  2012 12  8 19 10  0.00000000
PJ01 -31904.527304  18977.753752 -15322.750978    351.928114
PE11  18774.529142  -3519.777203 -22614.816760    -97.734665
PE12  10983.695342  15359.326583 -22794.102576    685.156702
*  2012 12  8 19 15  0.00000000
PJ01 -32115.573721  19132.318942 -14830.455704    351.927902
PE11  18512.212633  -2887.233359 -22918.658916    -97.709927
PE12  10731.220272  15991.892075 -22477.275423    685.182254
*  2012 12  8 19 20  0.00000000
PJ01 -32317.347060  19294.520217 -14329.980580    351.927771
PE11  18261.139951  -2240.845952 -23190.809611    -97.685155
PE12  10496.634908  16620.647272 -22129.357504    685.207801
*  2012 12  8 19 25  0.00000000
PJ01 -32509.583130  19463.979791 -13821.635510    351.927627
PE11  18022.120161  -1581.709215 -23430.892758    -97.660413
PE12  10279.955200  17244.240261 -21750.830175    685.233351
*  2012 12  8 19 30  0.00000000
PJ01 -32692.036856  19640.309470 -13305.732666    351.927421
PE11  17795.902525   -910.962994 -23638.576591    -97.635638
PE12  10081.121863  17861.324739 -21342.217120    685.258901
*  2012 12  8 19 35  0.00000000
PJ01 -32864.482623  19823.111533 -12782.586187    351.927246
PE11  17583.173906   -229.789040 -23813.574122    -97.610877
PE12   9900.000763  18470.564525 -20904.083623    685.284455
*  2012 12  8 19 40  0.00000000
PJ01 -33026.714556  20011.979650 -12252.511904    351.927080
PE11  17384.556399    460.592842 -23955.643535    -97.586100
PE12   9736.383590  19070.638026 -20437.035787    685.310004
*  2012 12  8 19 45  0.00000000
PJ01 -33178.546768  20206.499778 -11715.827062    351.926848
PE11  17200.605194   1158.928765 -24064.588516    -97.561350
PE12   9589.988771  19660.242654 -19941.719701    685.335549
*  2012 12  8 19 50  0.00000000
PJ01 -33319.813554  20406.251099 -11172.850042    351.926674
PE11  17031.806669   1863.934874 -24140.258529    -97.536569
PE12   9460.462665  20238.099192 -19418.820540    685.361111
*  2012 12  8 19 55  0.00000000
PJ01 -33450.369544  20610.806928 -10623.900105    351.926519
PE11  16878.576734   2574.301538 -24182.549015    -97.511796
PE12   9347.380991  20802.956064 -18869.061627    685.386644
EOF
